STARLINK-2384_new
1 17803C 21018S   21326.18629705  .00005853  00000-0  39215-3 0  3264
2 17803  53.0570  72.9081 0001056  83.9217 246.7454 15.06396696    17
STARLINK-2384_old
1 27803C 21018S   21325.14098916  .00005475  00000-0  36691-3 0  3257
2 27803  53.0568  77.6000 0001126  84.6386 334.1766 15.06383672    18
